NOAA 15                 
1 25338U 98030A   20211.95544585  .00000065  00000-0  45930-4 0  9998
2 25338  98.7148 236.7854 0011271 135.0391 225.1704 14.25982135155034
DMSP 5D-3 F15 (USA 147) 
1 25991U 99067A   20211.89297848 -.00000107  00000-0 -30854-4 0  9992
2 25991  98.9724 183.5913 0009763 346.8130  66.8668 14.16477903 66438
METEOSAT-8 (MSG-1)      
1 27509U 02040B   20211.70015170  .00000121  00000-0  00000-0 0  9990
2 27509   6.7961  53.9233 0001563  64.0067 123.4744  1.00265264 65717
DMSP 5D-3 F16 (USA 172) 
1 28054U 03048A   20211.91825734 -.00000102  00000-0 -30661-4 0  9994
2 28054  98.9144 190.8372 0008526 100.3332 344.5816 14.13650538865780
NOAA 18                 
1 28654U 05018A   20211.87629100  .00000077  00000-0  66087-4 0  9993
2 28654  99.0408 268.6953 0015339 110.8769 249.4046 14.12528360782906
METEOSAT-9 (MSG-2)      
1 28912U 05049B   20211.83606525  .00000001  00000-0  00000-0 0  9992
2 28912   4.5120  69.9861 0002641  17.4481 164.7492  1.00272598 53491
FORMOSAT-3 FM6          
1 29047U 06011A   20211.83571616  .00000063  00000-0  40840-4 0  9992
2 29047  71.9787  23.4865 0050811 347.2102  12.7741 14.28744095747380
FORMOSAT-3 FM1          
1 29048U 06011B   20211.92542319  .00000048  00000-0  35281-4 0  9997
2 29048  71.9669 294.1651 0045331 305.5393  54.1520 14.28707490749879
FORMOSAT-3 FM5          
1 29049U 06011C   20211.92407103  .00000027  00000-0  26799-4 0  9990
2 29049  72.0209 106.0580 0035849 330.8036  29.1096 14.28790471745666
FORMOSAT-3 FM3          
1 29050U 06011D   20211.44768110  .00000067  00000-0  24502-4 0  9991
2 29050  72.0143 248.8292 0051720 249.4776 110.0822 14.58932574762450
FORMOSAT-3 FM4          
1 29051U 06011E   20211.85314029  .00000049  00000-0  35120-4 0  9991
2 29051  72.0060   8.1721 0069009 212.6812 147.0047 14.28821140748248
FORMOSAT-3 FM2          
1 29052U 06011F   20211.91972655  .00000018  00000-0  23410-4 0  9999
2 29052  72.0346  82.3727 0041615 291.6374  68.0332 14.28927063745763
GOES 13                 
1 29155U 06018A   20211.79355083  .00000026  00000-0  00000-0 0  9991
2 29155   0.0767 223.5651 0006940 328.1032 103.3041  1.00268154 51966
METOP-A                 
1 29499U 06044A   20211.96307963 -.00000012  00000-0  13575-4 0  9995
2 29499  98.5191 257.2890 0001703 107.9377  16.9965 14.21502735714745
DMSP 5D-3 F17 (USA 191) 
1 29522U 06050A   20211.94157317 -.00000068  00000-0 -12895-4 0  9999
2 29522  98.8007 227.7007 0010868  59.9862 300.2388 14.14014984708714
FENGYUN 3A              
1 32958U 08026A   20211.88245017 -.00000015  00000-0  12409-4 0  9991
2 32958  98.4083 195.4275 0008039 207.3340 152.7414 14.18629962630734
FENGYUN 2E              
1 33463U 08066A   20212.06800615 -.00000219  00000-0  00000+0 0  9994
2 33463   4.4273  68.4276 0003041 303.2492  47.5295  1.00274971 42543
NOAA 19                 
1 33591U 09005A   20211.88309101  .00000070  00000-0  63623-4 0  9992
2 33591  99.1953 218.3344 0013273 320.4924  39.5278 14.12424174591126
GOES 14                 
1 35491U 09033A   20211.59770347 -.00000104  00000-0  00000-0 0  9991
2 35491   0.4195  97.8195 0009439 114.3898 206.1961  1.00269910 40570
METEOR-M 1              
1 35865U 09049A   20211.86965994  .00000018  00000-0  26906-4 0  9997
2 35865  98.4405 197.1125 0003520  74.7456 285.4112 14.22244451563802
DMSP 5D-3 F18 (USA 210) 
1 35951U 09057A   20211.87217914 -.00000013  00000-0  15559-4 0  9993
2 35951  98.6462 200.3401 0009870 245.1904 114.8243 14.13287872329672
GOES 15                 
1 36411U 10008A   20211.66621692  .00000043  00000-0  00000+0 0  9994
2 36411   0.0399 237.3496 0002711 206.4198 335.4316  1.00273009 38124
COMS 1                  
1 36744U 10032A   20211.78921958 -.00000357  00000-0  00000-0 0  9991
2 36744   0.0128  71.7502 0001113  51.2383 237.1493  1.00269708 29549
FENGYUN 3B              
1 37214U 10059A   20211.81675219 -.00000016  00000-0  15030-4 0  9998
2 37214  99.0491 194.2117 0017572 144.5839 215.6507 14.15953073503677
SUOMI NPP               
1 37849U 11061A   20211.83349924 -.00000017  00000-0  12556-4 0  9990
2 37849  98.7374 149.1911 0001503  97.6109 320.1521 14.19540264453640
FENGYUN 2F              
1 38049U 12002A   20212.00127067 -.00000370  00000-0  00000+0 0  9999
2 38049   2.1596  83.4702 0002152  78.0788 258.7012  1.00259127 31344
METEOSAT-10 (MSG-3)     
1 38552U 12035B   20212.18491898  .00000051  00000-0  00000+0 0  9994
2 38552   1.3766 342.2044 0001958 124.5831 277.6717  1.00265379 29689
METOP-B                 
1 38771U 12049A   20211.91996528 -.00000018  00000-0  11501-4 0  9999
2 38771  98.6888 270.5730 0000632 156.2581 200.7531 14.21501045408056
FENGYUN 3C              
1 39260U 13052A   20211.88658214 -.00000007  00000-0  17454-4 0  9992
2 39260  98.5471 260.5493 0012329  94.2710 265.9874 14.15842240354559
METEOR-M 2              
1 40069U 14037A   20211.80081752 -.00000052  00000-0 -48411-5 0  9993
2 40069  98.5001 247.7301 0006059 149.0681 211.0832 14.20673761314223
HIMAWARI-8              
1 40267U 14060A   20211.79166219 -.00000288  00000-0  00000-0 0  9996
2 40267   0.0335 206.5503 0001297 286.3958 240.5958  1.00270175 21215
FENGYUN 2G              
1 40367U 14090A   20211.78346199 -.00000316  00000-0  00000+0 0  9997
2 40367   2.1818  94.0679 0001486 326.6392 268.7980  1.00273264 20497
METEOSAT-11 (MSG-4)     
1 40732U 15034A   20211.83545461 -.00000014  00000-0  00000-0 0  9997
2 40732   0.7410 272.6573 0003340 225.2931 110.8244  1.00273844 18497
ELEKTRO-L 2             
1 41105U 15074A   20204.77966084 -.00000102  00000-0  00000+0 0  9996
2 41105   1.2820  96.7253 0001690  61.0117 139.9802  1.00273046 16901
HIMAWARI-9              
1 41836U 16064A   20211.79166219 -.00000288  00000-0  00000-0 0  9995
2 41836   0.0169 313.9303 0000597 155.3539 264.3511  1.00271668 13641
GOES 16                 
1 41866U 16071A   20211.82045003 -.00000261  00000-0  00000-0 0  9998
2 41866   0.0455 133.1562 0000719   9.8999  25.0190  1.00271430 13574
FENGYUN 4A              
1 41882U 16077A   20211.97424587 -.00000343  00000-0  00000-0 0  9997
2 41882   0.0477  63.5624 0003946  77.3732 262.4990  1.00274260 13446
CYGFM05                 
1 41884U 16078A   20211.53728826  .00000248  00000-0  14869-4 0  9990
2 41884  34.9556 158.5392 0015112  60.8773 299.3449 15.14651582200496
CYGFM04                 
1 41885U 16078B   20211.55925030  .00000268  00000-0  15690-4 0  9994
2 41885  34.9489 151.3708 0013422  72.1174 288.1000 15.15162348200562
CYGFM02                 
1 41886U 16078C   20211.55208043  .00000272  00000-0  15903-4 0  9995
2 41886  34.9581 153.1759 0014193  67.7613 292.4602 15.15163295200553
CYGFM01                 
1 41887U 16078D   20211.57705771  .00000254  00000-0  15256-4 0  9999
2 41887  34.9523 159.4935 0015570  61.9557 298.2727 15.14464151200486
CYGFM08                 
1 41888U 16078E   20211.55726522  .00000267  00000-0  15768-4 0  9997
2 41888  34.9493 155.2226 0014714  69.1902 291.0384 15.14879807200515
CYGFM06                 
1 41889U 16078F   20211.53115179  .00000252  00000-0  14896-4 0  9991
2 41889  34.9575 151.9967 0013139  67.4927 292.7174 15.15157256200557
CYGFM07                 
1 41890U 16078G   20211.50957682  .00000249  00000-0  14696-4 0  9997
2 41890  34.9513 151.2044 0012898  70.7104 289.5002 15.15155875200554
CYGFM03                 
1 41891U 16078H   20211.17565308  .00000266  00000-0  15618-4 0  9995
2 41891  34.9544 153.5383 0012394  66.1963 294.0047 15.15151300200507
FENGYUN 3D              
1 43010U 17072A   20211.79360225  .00000002  00000-0  21827-4 0  9991
2 43010  98.7533 150.6461 0001202   7.4038 352.7159 14.19746043140203
NOAA 20                 
1 43013U 17073A   20211.85750256 -.00000014  00000-0  14080-4 0  9996
2 43013  98.7186 149.1506 0000911 102.4669 257.6609 14.19558337139674
GOES 17                 
1 43226U 18022A   20211.66447220  .00000085  00000-0  00000-0 0  9990
2 43226   0.0535 244.1061 0000394 243.0709 282.5827  1.00272104  8864
FENGYUN 2H              
1 43491U 18050A   20211.63577157 -.00000136  00000-0  00000+0 0  9992
2 43491   0.5602 272.4962 0003549 229.8679 113.2409  1.00267517  7963
METOP-C                 
1 43689U 18087A   20211.74681155 -.00000024  00000-0  88019-5 0  9995
2 43689  98.6951 270.7193 0001700 189.2734 170.8412 14.21499411 89603
GEO-KOMPSAT-2A          
1 43823U 18100A   20211.78921958 -.00000357  00000-0  00000-0 0  9991
2 43823   0.0048 112.6961 0002507 352.9180 254.6306  1.00270800  6068
IOD-1 GEMS              
1 44385U 98067QK  20211.37375528  .00015042  00000-0  17976-3 0  9995
2 44385  51.6393 121.4720 0002969 114.1006 246.0298 15.61235984 61045
METEOR-M2 2             
1 44387U 19038A   20211.81617110 -.00000042  00000-0  72269-6 0  9997
2 44387  98.6229 171.0245 0002434  97.7080 262.4375 14.23680052 55569
